{
  "norad_id": 60371,
  "name": "STARLINK-32263",
  "history": [
    {
      "epoch": "2026-03-28T18:33:36.644256Z",
      "apogee_km": 476.1824290327986,
      "perigee_km": 474.3676455253262,
      "latitude_deg": 6.810622786152422e-05,
      "longitude_deg": 116.06789099987621,
      "height_km": 475.93720006007044,
      "semi_major_axis_km": 6853.412037279062,
      "eccentricity": 0.0001324,
      "inclination_deg": 53.1602,
      "raan_deg": 220.6595,
      "arg_perigee_deg": 74.9308,
      "mean_anomaly_deg": 285.184,
      "mean_motion_rev_day": 15.30179916
    }
  ]
}